{"fetched_at":"2026-05-20T15:02:40Z","count":15727,"tles":[{"name":"ONEWEB-0393","line1":"1 50473U 21132E   26140.18755039  .00000038  00000+0  64969-4 0  9997","line2":"2 50473  87.9157  11.4317 0001988  87.4425 272.6934 13.17648983214427","category":"Other"},{"name":"STARLINK-31123","line1":"1 58775U 24011L   26140.02059993  .00009922  00000+0  34715-3 0  9994","line2":"2 58775  53.1607  42.1863 0001162  95.0821 265.0312 15.30156047131191","category":"Starlink"},{"name":"FENGYUN 2F","line1":"1 38049U 12002A   24330.81948126 -.00000103  00000+0  00000+0 0  9993","line2":"2 38049   6.1437  72.3741 0002500 161.7369 230.0395  0.99136598 47172","category":"Weather"},{"name":"VEERY-FS1","line1":"1 52777U 22057AX  24092.94530104  .02574180  12069-1  24631-2 0  9991","line2":"2 52777  97.5311 228.1503 0013160 297.6666  62.3283 16.14710931103562","category":"Other"},{"name":"STARLINK-31931","line1":"1 59864U 24098G   26139.96929847  .00001022  00000+0  46655-4 0  9994","line2":"2 59864  43.0004 235.7745 0001195 285.2571  74.8148 15.27577124112742","category":"Starlink"},{"name":"STARLINK-11396 [DTC]","line1":"1 62015U 24213H   26140.03353440  .00183232  00000+0  14804-2 0  9998","line2":"2 62015  53.1579  49.3304 0001277  90.6429 269.4735 15.69770538 86120","category":"Starlink"},{"name":"STARLINK-36752","line1":"1 67724U 26026D   26140.14548422  .00011755  00000+0  36578-3 0  9995","line2":"2 67724  97.2836 193.6921 0000758 101.5966 258.5362 15.33452849 15070","category":"Starlink"},{"name":"STARLINK-1852","line1":"1 47139U 20088T   23362.11013156  .00015857  00000+0  10806-2 0  9998","line2":"2 47139  53.0557 309.7393 0001410  79.0260 281.0887 15.06414867171099","category":"Starlink"},{"name":"QPS-SAR-6 (AMATERU-III)","line1":"1 56951U 23084V   24322.02473709  .24235158  25893-5  52158-3 0  9994","line2":"2 56951  97.5138  91.3061 0010762 291.6079 162.9865 16.46029303 80033","category":"Other"},{"name":"STARLINK-34718","line1":"1 64911U 25157H   26139.96523714  .00004850  00000+0  17576-3 0  9994","line2":"2 64911  53.1600  14.7932 0001210  92.1278 267.9861 15.30201173 47033","category":"Starlink"},{"name":"STARLINK-32961","line1":"1 63122U 25039U   26140.20751737  .00020358  00000+0  74736-3 0  9995","line2":"2 63122  43.0002 328.9654 0001673 275.3984  84.6677 15.27575115 69009","category":"Starlink"},{"name":"STARLINK-37418","line1":"1 68775U 26086K   26140.07952405 -.00828398  00000+0 -58307-2 0  9994","line2":"2 68775  97.2833 176.7001 0010086 325.9107  34.1510 15.76136486  4736","category":"Starlink"},{"name":"STARLINK-35339","line1":"1 66028U 25232Z   26140.21108987  .00011788  00000+0  40933-3 0  9991","line2":"2 66028  53.1570 131.8407 0000995  84.2577 275.8538 15.30212161 34383","category":"Starlink"},{"name":"KENT RIDGE 1","line1":"1 41167U 15077B   26139.28237287  .00002774  00000+0  83279-4 0  9991","line2":"2 41167  14.9790 120.9133 0008383 191.6829 168.3298 15.22937401576681","category":"Other"},{"name":"STARLINK-4612","line1":"1 53750U 22107BC  26140.18360963  .00002242  00000+0  15887-3 0  9992","line2":"2 53750  53.2172 303.3785 0001341  96.3274 263.7870 15.08844167205397","category":"Starlink"},{"name":"FENGYUN 1C DEB","line1":"1 31773U 99025CFY 26100.77213276  .00011327  00000+0  16016-2 0  9999","line2":"2 31773  98.9532 109.1746 0037752 165.7708 194.4571 14.76826316669292","category":"Weather"},{"name":"STARLINK-2449","line1":"1 48112U 21027W   26139.85757155  .00002540  00000+0  93577-4 0  9997","line2":"2 48112  53.1592 196.7993 0000860  83.2317 276.8782 15.31706408283384","category":"Starlink"},{"name":"BB3","line1":"1 57760U 23133D   26139.23427477  .00000750  00000+0  16788-3 0  9998","line2":"2 57760  81.0088  21.1528 0143131  32.7569 328.2395 14.49528319137858","category":"Other"},{"name":"STARLINK-32202","line1":"1 60595U 24150N   26139.98144464 -.00000147  00000+0  71686-5 0  9993","line2":"2 60595  53.1614 336.0831 0001071  96.4239 263.6884 15.30194872 98951","category":"Starlink"},{"name":"FLOCK 4H-31","line1":"1 66734U 25276BW  26140.18198969  .00003773  00000+0  18204-3 0  9999","line2":"2 66734  97.4172 214.0539 0005421 111.9856 248.1955 15.19278113 26162","category":"Other"},{"name":"STARLINK-1135","line1":"1 45049U 20006F   23361.89095949  .00012466  00000+0  46773-3 0  9996","line2":"2 45049  53.0866 240.7790 0005896 158.8803 201.2440 15.27599202216185","category":"Starlink"},{"name":"STARLINK-5702","line1":"1 55622U 23020BF  26139.53277797 -.00003185  00000+0 -10630-3 0  9996","line2":"2 55622  43.0052 314.1643 0000848 272.7607  87.3148 15.27569782179874","category":"Starlink"},{"name":"STARLINK-34128","line1":"1 63892U 25095C   26059.83395119  .10864389  89706-5  46844-2 0  9992","line2":"2 63892  42.9923 220.0314 0005959 293.3629  66.6630 16.21663642 46502","category":"Starlink"},{"name":"UNKNOWN","line1":"1 84406U          26104.19900051  .00000377  00000+0  21957-2 0  9992","line2":"2 84406 101.7244 254.9593 0050477 158.5810  17.9419 12.67540549 64803","category":"Other"},{"name":"COSMOS 2251 DEB","line1":"1 34971U 93036AFA 26103.12180045  .00000428  00000+0  10127-3 0  9995","line2":"2 34971  73.9786  54.1366 0071386 250.2415 122.6414 14.55854676679390","category":"Other"},{"name":"STARLINK-3299","line1":"1 50831U 22001AE  26139.47289576  .00001038  00000+0  83275-4 0  9991","line2":"2 50831  53.2164 211.4293 0001282  90.9265 269.1874 15.08834689241091","category":"Starlink"},{"name":"STARLINK-31250","line1":"1 58839U 24017P   26140.00002315  .00017755  00000+0  53569-3 0  9996","line2":"2 58839  53.1598 222.7349 0001386  90.4524 137.0239 15.34381716  5826","category":"Starlink"},{"name":"COSMOS 2251 DEB","line1":"1 38220U 93036BTL 26104.94024194  .00011254  00000+0  84842-3 0  9993","line2":"2 38220  74.0106 178.3197 0002670 266.3804  93.7079 15.02524800732155","category":"Other"},{"name":"STARLINK-4171","line1":"1 52878U 22062BA  26140.02258488 -.00000584  00000+0 -18574-4 0  9999","line2":"2 52878  53.2192  53.8956 0001704  83.2460 276.8726 15.08842707216835","category":"Starlink"},{"name":"STARLINK-31932","line1":"1 59929U 24106H   26140.12451534 -.00070769  00000+0 -25906-2 0  9999","line2":"2 59929  43.0038 285.8934 0000437 220.8528 139.2291 15.27533754111488","category":"Starlink"},{"name":"SUPERVIEW NEO-2 03","line1":"1 62079U 24218B   26139.47551636  .00000038  00000+0  49338-5 0  9991","line2":"2 62079  97.4396 147.2144 0001585  88.4213 271.7203 15.19718192 82086","category":"Other"},{"name":"FLOCK 4X-26","line1":"1 51026U 22002AU  23361.70265097  .00025203  00000+0  72400-3 0  9998","line2":"2 51026  97.4153  70.5117 0006791 270.0103  90.0363 15.35797071108467","category":"Other"},{"name":"COSMOS 2413 (712)","line1":"1 28509U 04053B   08024.08416543 -.00000044  00000-0  10000-3 0  8746","line2":"2 28509  64.1875 299.5700 0004398 158.1149   0.3344  2.13102971 23940","category":"Other"},{"name":"ONEWEB-0039","line1":"1 45146U 20008R   26140.18568414  .00000538  00000+0  15042-2 0  9999","line2":"2 45146  87.8855  41.8413 0002326  77.8397 282.2991 13.10370909304494","category":"Other"},{"name":"STARLINK-30055","line1":"1 55699U 23026E   23362.19600130  .00032248  00000+0  24801-3 0  9999","line2":"2 55699  42.9967 255.7989 0001100 279.9158  80.1586 15.71393618 48713","category":"Starlink"},{"name":"FENGYUN 1C DEB","line1":"1 30999U 99025BCR 26103.76805340  .00001084  00000+0  22274-3 0  9992","line2":"2 30999  99.0977 294.0579 0110846 327.7960  31.6499 14.59343964  5963","category":"Weather"},{"name":"STARLINK-2101","line1":"1 47381U 21005AJ  26140.04039396  .00001304  00000+0  53768-4 0  9998","line2":"2 47381  53.1618  65.5904 0001418  82.4102 277.7060 15.31702762294311","category":"Starlink"},{"name":"STARLINK-6248","line1":"1 57082U 23088AL  26140.02261387  .00000562  00000+0  29969-4 0  9996","line2":"2 57082  43.0068  52.9461 0001903 273.3666  86.6968 15.27575832161419","category":"Starlink"},{"name":"SES-5","line1":"1 38652U 12036A   26140.16630985  .00000030  00000+0  00000+0 0  9998","line2":"2 38652   0.0539 305.5788 0001862 107.0288 250.0782  1.00271339 44178","category":"Other"},{"name":"STARLINK-4183","line1":"1 53014U 22076AE  26140.18174860  .00000418  00000+0  44348-4 0  9997","line2":"2 53014  53.2169 123.1792 0001390  77.7548 282.3600 15.08845674213776","category":"Starlink"},{"name":"SPACEWAY 3","line1":"1 32018U 07036A   24111.52544712 -.00000146  00000+0  00000+0 0  9999","line2":"2 32018   1.9497  86.2057 0002342 354.2975 251.1315  0.99138787 38641","category":"Other"},{"name":"STARLINK-2536","line1":"1 48310U 21036AL  26140.15154506  .00003449  00000+0  12281-3 0  9994","line2":"2 48310  53.1602 119.0745 0001204  83.6804 276.4335 15.31707188279120","category":"Starlink"},{"name":"GALAXY 1 (G-1)","line1":"1 14158U 83065A   26105.00422919 -.00000298  00000+0  00000+0 0  9990","line2":"2 14158  13.6455 342.1410 0003103 327.3212 203.4876  1.00130332 45997","category":"Other"},{"name":"CELTEE 1","line1":"1 41850U 16067C   26140.15450490  .00003565  00000+0  17225-3 0  9997","line2":"2 41850  98.0704   4.8110 0001439  56.1866 303.9504 15.19373973521629","category":"Other"},{"name":"STARLINK-5056","line1":"1 53910U 22119AA  23362.12284988  .00000602  00000+0  55885-4 0  9993","line2":"2 53910  53.2168 317.0506 0001557  93.8300 266.2870 15.08839942 70241","category":"Starlink"},{"name":"FENGYUN 1C DEB","line1":"1 35236U 99025DQU 26086.54589930  .00001856  00000+0  51292-3 0  9990","line2":"2 35236  98.8145  22.7621 0083444 236.8905 122.4256 14.45998194994460","category":"Weather"},{"name":"STARLINK-3358","line1":"1 51109U 22005F   26139.93654785  .00000377  00000+0  41742-4 0  9991","line2":"2 51109  53.2160 329.2315 0000966  90.8735 269.2368 15.08842950239409","category":"Starlink"},{"name":"MSG-2 DEB [COOLER COVER]","line1":"1 29106U 05049E   26064.96433646 -.00000139  00000+0  00000+0 0  9997","line2":"2 29106  12.6986  29.7011 0013020 281.3883 257.9904  1.01180259 73880","category":"Other"}]}